H-2A R/B                
1 28932U 06002B   26173.39354194  .00005531  00000+0  26659-3 0  9993
2 28932  98.2570 329.6937 0049695 244.1565 115.4537 15.18115698110313
RESURS-DK 1             
1 29228U 06021A   26172.59646486  .00001045  00000+0  64802-4 0  9991
2 29228  69.9331 328.1395 0006912 290.7145  69.3280 15.13229164103245
CZ-4B R/B               
1 29507U 06046C   26173.39514262  .00003014  00000+0  15072-3 0  9995
2 29507  97.5451 217.9862 0030955 263.6742  96.0966 15.17814048 75921
CZ-2C R/B               
1 31114U 07010B   26173.55490144  .00000046  00000+0  40197-4 0  9993
2 31114  98.4103 281.6433 0058695 350.5230   9.4835 14.20277100994606
COSMO-SKYMED 1          
1 31598U 07023A   26173.81612750  .00002424  00000+0  21519-3 0  9999
2 31598  97.8855   5.7189 0001676  94.6726 265.4687 14.97125084 30635
COSMOS 2428             
1 31792U 07029A   26173.73657019 -.00000061  00000+0 -69201-5 0  9998
2 31792  70.9351 342.8255 0007130 124.3960 235.7836 14.12927756978938
SL-16 R/B               
1 31793U 07029B   26173.68504090 -.00000088  00000+0 -20879-4 0  9999
2 31793  70.9773 311.6706 0002423 263.2488 108.5548 14.14855726980221
KORONAS-FOTON           
1 33504U 09003A   26173.71042963  .00008198  00000+0  16789-3 0  9997
2 33504  82.4290 166.4971 0012153 129.9394 230.2925 15.45818494961957
CZ-2C R/B               
1 37731U 11030B   26173.66783441  .00000902  00000+0  11927-3 0  9997
2 37731  97.8655 128.9550 0052581  10.4089 162.3055 14.81482390805630
H-2A R/B                
1 38341U 12025E   26173.64249807  .00001347  00000+0  12497-3 0  9998
2 38341  98.4828 149.2377 0043330 330.9325  28.9482 14.95739381763909
SHIJIAN-16 (SJ-16)      
1 39358U 13057A   26173.86967807  .00000303  00000+0  32264-4 0  9990
2 39358  74.9736 345.9201 0016698 217.5207 142.4817 14.92612028687197
SL-4 R/B                
1 39679U 14021B   26173.50771576  .00008520  00000+0  17831-3 0  9996
2 39679  51.6041 184.7039 0090950 125.3469 235.6059 15.42043786672430
ALOS-2                  
1 39766U 14029A   26173.82032998  .00000910  00000+0  12870-3 0  9997
2 39766  97.9216 270.9034 0001609  91.1740 268.9656 14.79470158652416
YAOGAN-29               
1 41038U 15069A   26173.84512344  .00000634  00000+0  84509-4 0  9999
2 41038  98.0028 202.4871 0002337  46.3204 313.8203 14.83089902571460
ASTRO-H (HITOMI)        
1 41337U 16012A   26173.71713695  .00001910  00000+0  10729-3 0  9998
2 41337  30.9999  38.4728 0009765 308.7686  51.2080 15.10530653568123
HXMT (HUIYAN)           
1 42758U 17034A   26173.85702498  .00002423  00000+0  12552-3 0  9991
2 42758  43.0126 151.4682 0031393 183.4385 176.6252 15.18503538498528
SAOCOM 1A               
1 43641U 18076A   26173.80693987  .00000428  00000+0  60320-4 0  9997
2 43641  97.8890   0.4737 0001567  82.4255 277.7136 14.82151580416938
H-2A R/B                
1 43682U 18084L   26173.69719231  .00016942  00000+0  35390-3 0  9995
2 43682  98.8573  53.7909 0022880  21.8094 338.4120 15.45339114421972
SAOCOM 1B               
1 46265U 20059A   26173.83809894  .00000162  00000+0  26880-4 0  9993
2 46265  97.8896 359.5996 0001632  83.1279 277.0120 14.82150021314326
CSS (TIANHE)            
1 48274U 21035A   26173.79934437  .00019288  00000+0  22604-3 0  9995
2 48274  41.4690 287.8422 0007495 126.6013 233.5516 15.61031089294046
COSMOS 2550             
1 48865U 21056A   26173.82755652  .00003947  00000+0  12570-3 0  9994
2 48865  67.1432  82.8441 0008376 268.7610  91.2584 15.33836412279583
CZ-2C R/B               
1 52794U 22058K   26173.61569453  .00030942  00000+0  34032-3 0  9994
2 52794  50.1842 135.2645 0032198 290.3204  69.4311 15.62196221226490
CZ-2C R/B               
1 54039U 22132E   26172.99106509  .00055370  00000+0  42022-3 0  9990
2 54039  97.2904 180.2306 0015248  69.3678 290.9219 15.72025216206701
GSLV R/B                
1 54149U 22138AN  26173.59812929  .00001712  00000+0  14443-3 0  9992
2 54149  87.3808 131.1672 0023544 125.5219 234.8214 14.97276394199626
XRISM                   
1 57800U 23137A   26173.80014964  .00003830  00000+0  20899-3 0  9991
2 57800  31.0030 323.2428 0007856  20.1188 339.9760 15.12508210153718
ACS3                    
1 59588U 24077B   26173.51600889  .00027852  00000+0  20195-1 0  9992
2 59588  97.1692  91.1192 0086279  60.5958 300.3787 13.94500903108785
CZ-8A R/B               
1 66004U 25231K   26173.29258652 -.00000063  00000+0  35908-4 0  9995
2 66004  50.0056  17.5954 0116477 241.9849 116.9243 14.30156072 35674
SZ-21 MODULE            
1 66515U 25246C   26173.34666017  .00038399  00000+0  23227-3 0  9994
2 66515  41.4725 275.1818 0005474  28.5269 331.5874 15.76805453 34554
