OBJECT_NAME,OBJECT_ID,EPOCH,MEAN_MOTION,ECCENTRICITY,INCLINATION,RA_OF_ASC_NODE,ARG_OF_PERICENTER,MEAN_ANOMALY,EPHEMERIS_TYPE,CLASSIFICATION_TYPE,NORAD_CAT_ID,ELEMENT_SET_NO,REV_AT_EPOCH,BSTAR,MEAN_MOTION_DOT,MEAN_MOTION_DDOT
H-2A R/B,2006-002B,2026-06-22T09:26:42.023616,15.18115698,.00496957,98.2570,329.6937,244.1565,115.4537,0,U,28932,999,11031,.26658772E-3,.5531E-4,0
RESURS-DK 1,2006-021A,2026-06-21T14:18:54.563904,15.13229164,.00069125,69.9331,328.1395,290.7145,69.3280,0,U,29228,999,10324,.64802273E-4,.1045E-4,0
CZ-4B R/B,2006-046C,2026-06-22T09:29:00.322368,15.17814048,.00309553,97.5451,217.9862,263.6742,96.0966,0,U,29507,999,7592,.15072309E-3,.3014E-4,0
CZ-2C R/B,2007-010B,2026-06-22T13:19:03.484416,14.20277100,.00586952,98.4103,281.6433,350.5230,9.4835,0,U,31114,999,99460,.40196573E-4,.46E-6,0
COSMO-SKYMED 1,2007-023A,2026-06-22T19:35:13.416000,14.97125084,.00016765,97.8855,5.7189,94.6726,265.4687,0,U,31598,999,3063,.21518859E-3,.2424E-4,0
COSMOS 2428,2007-029A,2026-06-22T17:40:39.664416,14.12927756,.00071307,70.9351,342.8255,124.3960,235.7836,0,U,31792,999,97893,-.6920056E-5,-.61E-6,0
SL-16 R/B,2007-029B,2026-06-22T16:26:27.533760,14.14855726,.00024233,70.9773,311.6706,263.2488,108.5548,0,U,31793,999,98022,-.20878523E-4,-.88E-6,0
KORONAS-FOTON,2009-003A,2026-06-22T17:03:01.120032,15.45818494,.00121538,82.4290,166.4971,129.9394,230.2925,0,U,33504,999,96195,.16789076E-3,.8198E-4,0
CZ-2C R/B,2011-030B,2026-06-22T16:01:40.893024,14.81482390,.0052581,97.8655,128.9550,10.4089,162.3055,0,U,37731,999,80563,.11927179E-3,.902E-5,0
H-2A R/B,2012-025E,2026-06-22T15:25:11.833248,14.95739381,.00433309,98.4828,149.2377,330.9325,28.9482,0,U,38341,999,76390,.12496865E-3,.1347E-4,0
SHIJIAN-16 (SJ-16),2013-057A,2026-06-22T20:52:20.185248,14.92612028,.00166984,74.9736,345.9201,217.5207,142.4817,0,U,39358,999,68719,.32263828E-4,.303E-5,0
SL-4 R/B,2014-021B,2026-06-22T12:11:06.641664,15.42043786,.00909502,51.6041,184.7039,125.3469,235.6059,0,U,39679,999,67243,.1783073E-3,.852E-4,0
ALOS-2,2014-029A,2026-06-22T19:41:16.510272,14.79470158,.00016094,97.9216,270.9034,91.1740,268.9656,0,U,39766,999,65241,.12869682E-3,.91E-5,0
YAOGAN-29,2015-069A,2026-06-22T20:16:58.665216,14.83089902,.00023377,98.0028,202.4871,46.3204,313.8203,0,U,41038,999,57146,.84508886E-4,.634E-5,0
ASTRO-H (HITOMI),2016-012A,2026-06-22T17:12:40.632480,15.10530653,.00097656,30.9999,38.4728,308.7686,51.2080,0,U,41337,999,56812,.10728965E-3,.191E-4,0
HXMT (HUIYAN),2017-034A,2026-06-22T20:34:06.958272,15.18503538,.00313936,43.0126,151.4682,183.4385,176.6252,0,U,42758,999,49852,.12552203E-3,.2423E-4,0
SAOCOM 1A,2018-076A,2026-06-22T19:21:59.604768,14.82151580,.00015673,97.8890,0.4737,82.4255,277.7136,0,U,43641,999,41693,.60320489E-4,.428E-5,0
H-2A R/B,2018-084L,2026-06-22T16:43:57.415584,15.45339114,.002288,98.8573,53.7909,21.8094,338.4120,0,U,43682,999,42197,.35390414E-3,.16942E-3,0
SAOCOM 1B,2020-059A,2026-06-22T20:06:51.748416,14.82150021,.00016325,97.8896,359.5996,83.1279,277.0120,0,U,46265,999,31432,.2687979E-4,.162E-5,0
CSS (TIANHE),2021-035A,2026-06-22T19:11:03.353568,15.61031089,.00074959,41.4690,287.8422,126.6013,233.5516,0,U,48274,999,29404,.22603576E-3,.19288E-3,0
COSMOS 2550,2021-056A,2026-06-22T19:51:40.883328,15.33836412,.00083764,67.1432,82.8441,268.7610,91.2584,0,U,48865,999,27958,.12570146E-3,.3947E-4,0
CZ-2C R/B,2022-058K,2026-06-22T14:46:36.007392,15.62196221,.00321989,50.1842,135.2645,290.3204,69.4311,0,U,52794,999,22649,.34032493E-3,.30942E-3,0
CZ-2C R/B,2022-132E,2026-06-21T23:47:08.023776,15.72025216,.00152484,97.2904,180.2306,69.3678,290.9219,0,U,54039,999,20670,.42022104E-3,.5537E-3,0
GSLV R/B,2022-138AN,2026-06-22T14:21:18.370656,14.97276394,.00235447,87.3808,131.1672,125.5219,234.8214,0,U,54149,999,19962,.14443349E-3,.1712E-4,0
XRISM,2023-137A,2026-06-22T19:12:12.928896,15.12508210,.00078564,31.0030,323.2428,20.1188,339.9760,0,U,57800,999,15371,.20899024E-3,.383E-4,0
ACS3,2024-077B,2026-06-22T12:23:03.168096,13.94500903,.00862798,97.1692,91.1192,60.5958,300.3787,0,U,59588,999,10878,.20194809E-1,.27852E-3,0
CZ-8A R/B,2025-231K,2026-06-22T07:01:19.475328,14.30156072,.01164775,50.0056,17.5954,241.9849,116.9243,0,U,66004,999,3567,.35907515E-4,-.63E-6,0
SZ-21 MODULE,2025-246C,2026-06-22T08:19:11.438688,15.76805453,.00054742,41.4725,275.1818,28.5269,331.5874,0,U,66515,999,3455,.23227114E-3,.38399E-3,0
